start=new Date('2022-05-08T00:00:00.000Z').valueOf();
sats=[{"INCLINATION":"53.2173","RA_OF_ASC_NODE":"38.2059","SITE":"AFETR","DECAY_DATE":null,"OBJECT_NAME":"STARLINK-3824","MEAN_ELEMENT_THEORY":"SGP4","MEAN_MOTION_DDOT":"0.0000000000000","TLE_LINE2":"2 52360  53.2173  38.2059 0000925  86.0765 268.9441 15.78617389  1734","PERIAPSIS":"333.738","LAUNCH_DATE":"2022-04-29","MEAN_MOTION":"15.78617389","APOAPSIS":"334.980","ELEMENT_SET_NO":"999","NORAD_CAT_ID":"52360","CLASSIFICATION_TYPE":"U","REF_FRAME":"TEME","GP_ID":"202928651","BSTAR":"-0.00542150000000","EPHEMERIS_TYPE":"0","SEMIMAJOR_AXIS":"6712.494","TLE_LINE1":"1 52360U 22045AF  22127.58334491 -.00872989  00000-0 -54215-2 0  9994","ARG_OF_PERICENTER":"86.0765","OBJECT_TYPE":"PAYLOAD","RCS_SIZE":null,"REV_AT_EPOCH":"173","EPOCH":"2022-05-07T14:00:01.000224","TIME_SYSTEM":"UTC","PERIOD":"91.219","MEAN_MOTION_DOT":"-0.00872989","MEAN_ANOMALY":"268.9441","ECCENTRICITY":"0.00009250","COUNTRY_CODE":"US","FILE":"3433971","OBJECT_ID":"2022-045AF","CENTER_NAME":"EARTH"},{"TLE_LINE1":"1 52361U 22045AG  22127.83334491 -.00878650  00000-0 -55977-2 0  9990","SEMIMAJOR_AXIS":"6714.048","EPHEMERIS_TYPE":"0","BSTAR":"-0.00559770000000","OBJECT_TYPE":"PAYLOAD","ARG_OF_PERICENTER":"81.7628","REV_AT_EPOCH":"379","RCS_SIZE":null,"EPOCH":"2022-05-07T20:00:01.000224","TIME_SYSTEM":"UTC","PERIOD":"91.251","COUNTRY_CODE":"US","MEAN_ANOMALY":"252.9810","ECCENTRICITY":"0.00010010","MEAN_MOTION_DOT":"-0.00878650","CENTER_NAME":"EARTH","OBJECT_ID":"2022-045AG","FILE":"3434471","RA_OF_ASC_NODE":"36.9633","INCLINATION":"53.2175","SITE":"AFETR","TLE_LINE2":"2 52361  53.2175  36.9633 0001001  81.7628 252.9810 15.78069406  3798","MEAN_ELEMENT_THEORY":"SGP4","MEAN_MOTION_DDOT":"0.0000000000000","OBJECT_NAME":"STARLINK-3728","DECAY_DATE":null,"PERIAPSIS":"335.241","APOAPSIS":"336.585","MEAN_MOTION":"15.78069406","LAUNCH_DATE":"2022-04-29","NORAD_CAT_ID":"52361","ELEMENT_SET_NO":"999","GP_ID":"202940814","REF_FRAME":"TEME","CLASSIFICATION_TYPE":"U"},{"ELEMENT_SET_NO":"999","NORAD_CAT_ID":"52362","GP_ID":"202940440","CLASSIFICATION_TYPE":"U","REF_FRAME":"TEME","PERIAPSIS":"334.951","APOAPSIS":"336.305","LAUNCH_DATE":"2022-04-29","MEAN_MOTION":"15.78169909","SITE":"AFETR","MEAN_ELEMENT_THEORY":"SGP4","MEAN_MOTION_DDOT":"0.0000000000000","TLE_LINE2":"2 52362  53.2175  36.9587 0001008  91.4470 245.3349 15.78169909  3799","OBJECT_NAME":"STARLINK-3848","DECAY_DATE":null,"RA_OF_ASC_NODE":"36.9587","INCLINATION":"53.2175","ECCENTRICITY":"0.00010080","MEAN_ANOMALY":"245.3349","COUNTRY_CODE":"US","MEAN_MOTION_DOT":"-0.00878726","OBJECT_ID":"2022-045AH","FILE":"3434479","CENTER_NAME":"EARTH","TIME_SYSTEM":"UTC","EPOCH":"2022-05-07T20:00:01.000224","PERIOD":"91.245","OBJECT_TYPE":"PAYLOAD","ARG_OF_PERICENTER":"91.4470","RCS_SIZE":null,"REV_AT_EPOCH":"379","SEMIMAJOR_AXIS":"6713.763","TLE_LINE1":"1 52362U 22045AH  22127.83334491 -.00878726  00000-0 -55728-2 0  9999","BSTAR":"-0.00557280000000","EPHEMERIS_TYPE":"0"},{"COUNTRY_CODE":"US","MEAN_ANOMALY":"240.8477","ECCENTRICITY":"0.00010140","MEAN_MOTION_DOT":"-0.00878651","CENTER_NAME":"EARTH","FILE":"3434479","OBJECT_ID":"2022-045AJ","TIME_SYSTEM":"UTC","EPOCH":"2022-05-07T20:00:01.000224","PERIOD":"91.250","OBJECT_TYPE":"PAYLOAD","ARG_OF_PERICENTER":"94.2977","REV_AT_EPOCH":"379","RCS_SIZE":null,"TLE_LINE1":"1 52363U 22045AJ  22127.83334491 -.00878651  00000-0 -55924-2 0  9995","SEMIMAJOR_AXIS":"6713.989","EPHEMERIS_TYPE":"0","BSTAR":"-0.00559240000000","NORAD_CAT_ID":"52363","ELEMENT_SET_NO":"999","GP_ID":"202940793","CLASSIFICATION_TYPE":"U","REF_FRAME":"TEME","PERIAPSIS":"335.173","APOAPSIS":"336.535","MEAN_MOTION":"15.78090244","LAUNCH_DATE":"2022-04-29","SITE":"AFETR","TLE_LINE2":"2 52363  53.2175  36.9624 0001014  94.2977 240.8477 15.78090244  3799","MEAN_ELEMENT_THEORY":"SGP4","MEAN_MOTION_DDOT":"0.0000000000000","OBJECT_NAME":"STARLINK-3830","DECAY_DATE":null,"RA_OF_ASC_NODE":"36.9624","INCLINATION":"53.2175"},{"INCLINATION":"53.2173","RA_OF_ASC_NODE":"38.2033","SITE":"AFETR","OBJECT_NAME":"STARLINK-3820","DECAY_DATE":null,"MEAN_ELEMENT_THEORY":"SGP4","MEAN_MOTION_DDOT":"0.0000000000000","TLE_LINE2":"2 52364  53.2173  38.2033 0000948  93.0792 263.1110 15.78676988  1733","PERIAPSIS":"333.554","LAUNCH_DATE":"2022-04-29","MEAN_MOTION":"15.78676988","APOAPSIS":"334.827","ELEMENT_SET_NO":"999","NORAD_CAT_ID":"52364","CLASSIFICATION_TYPE":"U","REF_FRAME":"TEME","GP_ID":"202928989","BSTAR":"-0.00540730000000","EPHEMERIS_TYPE":"0","SEMIMAJOR_AXIS":"6712.325","TLE_LINE1":"1 52364U 22045AK  22127.58334491 -.00873068  00000-0 -54073-2 0  9999","ARG_OF_PERICENTER":"93.0792","OBJECT_TYPE":"PAYLOAD","RCS_SIZE":null,"REV_AT_EPOCH":"173","TIME_SYSTEM":"UTC","EPOCH":"2022-05-07T14:00:01.000224","PERIOD":"91.216","MEAN_MOTION_DOT":"-0.00873068","ECCENTRICITY":"0.00009480","MEAN_ANOMALY":"263.1110","COUNTRY_CODE":"US","OBJECT_ID":"2022-045AK","FILE":"3433971","CENTER_NAME":"EARTH"},{"OBJECT_ID":"2022-045AL","FILE":"3434479","CENTER_NAME":"EARTH","MEAN_MOTION_DOT":"-0.00878510","ECCENTRICITY":"0.00010410","MEAN_ANOMALY":"233.3749","COUNTRY_CODE":"US","PERIOD":"91.247","TIME_SYSTEM":"UTC","EPOCH":"2022-05-07T20:00:01.000224","RCS_SIZE":null,"REV_AT_EPOCH":"379","ARG_OF_PERICENTER":"102.5940","OBJECT_TYPE":"PAYLOAD","BSTAR":"-0.00558140000000","EPHEMERIS_TYPE":"0","SEMIMAJOR_AXIS":"6713.877","TLE_LINE1":"1 52365U 22045AL  22127.83334491 -.00878510  00000-0 -55814-2 0  9999","CLASSIFICATION_TYPE":"U","REF_FRAME":"TEME","GP_ID":"202940791","ELEMENT_SET_NO":"999","NORAD_CAT_ID":"52365","LAUNCH_DATE":"2022-04-29","MEAN_MOTION":"15.78129573","APOAPSIS":"336.441","PERIAPSIS":"335.043","DECAY_DATE":null,"OBJECT_NAME":"STARLINK-3874","MEAN_MOTION_DDOT":"0.0000000000000","MEAN_ELEMENT_THEORY":"SGP4","TLE_LINE2":"2 52365  53.2175  36.9607 0001041 102.5940 233.3749 15.78129573  3792","SITE":"AFETR","INCLINATION":"53.2175","RA_OF_ASC_NODE":"36.9607"},{"APOAPSIS":"334.709","LAUNCH_DATE":"2022-04-29","MEAN_MOTION":"15.78716268","PERIAPSIS":"333.449","GP_ID":"202928567","CLASSIFICATION_TYPE":"U","REF_FRAME":"TEME","ELEMENT_SET_NO":"999","NORAD_CAT_ID":"52366","RA_OF_ASC_NODE":"38.2017","INCLINATION":"53.2173","MEAN_ELEMENT_THEORY":"SGP4","MEAN_MOTION_DDOT":"0.0000000000000","TLE_LINE2":"2 52366  53.2173  38.2017 0000939  97.6315 259.3398 15.78716268  1739","DECAY_DATE":null,"OBJECT_NAME":"STARLINK-3808","SITE":"AFETR","PERIOD":"91.213","TIME_SYSTEM":"UTC","EPOCH":"2022-05-07T14:00:01.000224","FILE":"3433971","OBJECT_ID":"2022-045AM","CENTER_NAME":"EARTH","MEAN_ANOMALY":"259.3398","ECCENTRICITY":"0.00009390","COUNTRY_CODE":"US","MEAN_MOTION_DOT":"-0.00873103","SEMIMAJOR_AXIS":"6712.214","TLE_LINE1":"1 52366U 22045AM  22127.58334491 -.00873103  00000-0 -53979-2 0  9995","BSTAR":"-0.00539790000000","EPHEMERIS_TYPE":"0","RCS_SIZE":null,"REV_AT_EPOCH":"173","OBJECT_TYPE":"PAYLOAD","ARG_OF_PERICENTER":"97.6315"},{"ARG_OF_PERICENTER":"101.2306","OBJECT_TYPE":"PAYLOAD","RCS_SIZE":null,"REV_AT_EPOCH":"379","BSTAR":"-0.00556710000000","EPHEMERIS_TYPE":"0","SEMIMAJOR_AXIS":"6713.709","TLE_LINE1":"1 52367U 22045AN  22127.83334491 -.00878600  00000-0 -55671-2 0  9992","MEAN_MOTION_DOT":"-0.00878600","ECCENTRICITY":"0.00010180","MEAN_ANOMALY":"235.9670","COUNTRY_CODE":"US","OBJECT_ID":"2022-045AN","FILE":"3434479","CENTER_NAME":"EARTH","EPOCH":"2022-05-07T20:00:01.000224","TIME_SYSTEM":"UTC","PERIOD":"91.244","SITE":"AFETR","DECAY_DATE":null,"OBJECT_NAME":"STARLINK-3817","MEAN_MOTION_DDOT":"0.0000000000000","MEAN_ELEMENT_THEORY":"SGP4","TLE_LINE2":"2 52367  53.2175  36.9581 0001018 101.2306 235.9670 15.78188897  3796","INCLINATION":"53.2175","RA_OF_ASC_NODE":"36.9581","ELEMENT_SET_NO":"999","NORAD_CAT_ID":"52367","REF_FRAME":"TEME","CLASSIFICATION_TYPE":"U","GP_ID":"202940441","PERIAPSIS":"334.891","LAUNCH_DATE":"2022-04-29","MEAN_MOTION":"15.78188897","APOAPSIS":"336.258"},{"INCLINATION":"53.2173","RA_OF_ASC_NODE":"38.1990","SITE":"AFETR","OBJECT_NAME":"STARLINK-3834","DECAY_DATE":null,"MEAN_ELEMENT_THEORY":"SGP4","MEAN_MOTION_DDOT":"0.0000000000000","TLE_LINE2":"2 52368  53.2173  38.1990 0000947  96.4278 261.7326 15.78772898  1733","PERIAPSIS":"333.283","LAUNCH_DATE":"2022-04-29","MEAN_MOTION":"15.78772898","APOAPSIS":"334.554","ELEMENT_SET_NO":"999","NORAD_CAT_ID":"52368","CLASSIFICATION_TYPE":"U","REF_FRAME":"TEME","GP_ID":"202928652","BSTAR":"-0.00538360000000","EPHEMERIS_TYPE":"0","SEMIMAJOR_AXIS":"6712.053","TLE_LINE1":"1 52368U 22045AP  22127.58334491 -.00873049  00000-0 -53836-2 0  9998","ARG_OF_PERICENTER":"96.4278","OBJECT_TYPE":"PAYLOAD","RCS_SIZE":null,"REV_AT_EPOCH":"173","TIME_SYSTEM":"UTC","EPOCH":"2022-05-07T14:00:01.000224","PERIOD":"91.210","MEAN_MOTION_DOT":"-0.00873049","MEAN_ANOMALY":"261.7326","ECCENTRICITY":"0.00009470","COUNTRY_CODE":"US","FILE":"3433971","OBJECT_ID":"2022-045AP","CENTER_NAME":"EARTH"},{"SEMIMAJOR_AXIS":"6712.270","TLE_LINE1":"1 52369U 22045AQ  22127.58334491 -.00872988  00000-0 -54020-2 0  9996","BSTAR":"-0.00540200000000","EPHEMERIS_TYPE":"0","OBJECT_TYPE":"PAYLOAD","ARG_OF_PERICENTER":"91.4484","RCS_SIZE":null,"REV_AT_EPOCH":"173","TIME_SYSTEM":"UTC","EPOCH":"2022-05-07T14:00:01.000224","PERIOD":"91.214","ECCENTRICITY":"0.00009270","MEAN_ANOMALY":"265.1335","COUNTRY_CODE":"US","MEAN_MOTION_DOT":"-0.00872988","OBJECT_ID":"2022-045AQ","FILE":"3433971","CENTER_NAME":"EARTH","RA_OF_ASC_NODE":"38.2028","INCLINATION":"53.2173","SITE":"AFETR","MEAN_MOTION_DDOT":"0.0000000000000","MEAN_ELEMENT_THEORY":"SGP4","TLE_LINE2":"2 52369  53.2173  38.2028 0000927  91.4484 265.1335 15.78696505  1737","OBJECT_NAME":"STARLINK-3841","DECAY_DATE":null,"PERIAPSIS":"333.513","APOAPSIS":"334.757","LAUNCH_DATE":"2022-04-29","MEAN_MOTION":"15.78696505","ELEMENT_SET_NO":"999","NORAD_CAT_ID":"52369","GP_ID":"202929157","REF_FRAME":"TEME","CLASSIFICATION_TYPE":"U"}];
